{
    "links": {
        "self": "http://www.neowsapp.com/rest/v1/neo/3892653?api_key=iIulBulltgU6a56xZRHN4H3l9WmuAYTsLGpBGhQ2"
    },
    "id": "3892653",
    "neo_reference_id": "3892653",
    "name": "(2019 VD2)",
    "designation": "2019 VD2",
    "nasa_jpl_url": "http://ssd.jpl.nasa.gov/sbdb.cgi?sstr=3892653",
    "absolute_magnitude_h": 21.4,
    "estimated_diameter": {
        "kilometers": {
            "estimated_diameter_min": 0.1394938229,
            "estimated_diameter_max": 0.3119176705
        },
        "meters": {
            "estimated_diameter_min": 139.4938229344,
            "estimated_diameter_max": 311.9176705226
        },
        "miles": {
            "estimated_diameter_min": 0.0866774163,
            "estimated_diameter_max": 0.1938165949
        },
        "feet": {
            "estimated_diameter_min": 457.6569140361,
            "estimated_diameter_max": 1023.3519701574
        }
    },
    "is_potentially_hazardous_asteroid": true,
    "close_approach_data": [
        {
            "close_approach_date": "1925-08-15",
            "close_approach_date_full": "1925-Aug-15 02:56",
            "epoch_date_close_approach": -1400533440000,
            "relative_velocity": {
                "kilometers_per_second": "32.7975034755",
                "kilometers_per_hour": "118071.0125119681",
                "miles_per_hour": "73364.7355244504"
            },
            "miss_distance": {
                "astronomical": "0.0959447031",
                "lunar": "37.3224895059",
                "kilometers": "14353123.221542397",
                "miles": "8918617.2080911986"
            },
            "orbiting_body": "Venus"
        },
        {
            "close_approach_date": "1925-10-29",
            "close_approach_date_full": "1925-Oct-29 22:11",
            "epoch_date_close_approach": -1393984140000,
            "relative_velocity": {
                "kilometers_per_second": "28.9983539048",
                "kilometers_per_hour": "104394.074057122",
                "miles_per_hour": "64866.4178495489"
            },
            "miss_distance": {
                "astronomical": "0.0642956553",
                "lunar": "25.0110099117",
                "kilometers": "9618493.083134211",
                "miles": "5976654.4607096718"
            },
            "orbiting_body": "Earth"
        },
        {
            "close_approach_date": "2019-11-01",
            "close_approach_date_full": "2019-Nov-01 12:24",
            "epoch_date_close_approach": 1572611040000,
            "relative_velocity": {
                "kilometers_per_second": "30.5381172203",
                "kilometers_per_hour": "109937.2219931693",
                "miles_per_hour": "68310.7144101445"
            },
            "miss_distance": {
                "astronomical": "0.0880415445",
                "lunar": "34.2481608105",
                "kilometers": "13170827.528710215",
                "miles": "8183972.730482367"
            },
            "orbiting_body": "Earth"
        },
        {
            "close_approach_date": "2119-03-26",
            "close_approach_date_full": "2119-Mar-26 13:28",
            "epoch_date_close_approach": 4709280480000,
            "relative_velocity": {
                "kilometers_per_second": "40.15514253",
                "kilometers_per_hour": "144558.5131079561",
                "miles_per_hour": "89823.0383253297"
            },
            "miss_distance": {
                "astronomical": "0.4434048012",
                "lunar": "172.4844676668",
                "kilometers": "66332413.807293444",
                "miles": "41217050.6798157672"
            },
            "orbiting_body": "Earth"
        }
    ],
    "orbital_data": {
        "orbit_id": "7",
        "orbit_determination_date": "2019-11-24 04:53:48",
        "first_observation_date": "2019-11-04",
        "last_observation_date": "2019-11-24",
        "data_arc_in_days": 20,
        "observations_used": 47,
        "orbit_uncertainty": "8",
        "minimum_orbit_intersection": ".0474292",
        "jupiter_tisserand_invariant": "3.337",
        "epoch_osculation": "2458794.5",
        "eccentricity": ".7355359416559535",
        "semi_major_axis": "1.969746508901992",
        "inclination": "33.49453513421049",
        "ascending_node_longitude": "38.83448816047389",
        "orbital_period": "1009.750172441494",
        "perihelion_distance": ".5209271556532384",
        "perihelion_argument": "257.0531143803265",
        "aphelion_distance": "3.418565862150746",
        "perihelion_time": "2458742.079424326008",
        "mean_anomaly": "18.68918447125152",
        "mean_motion": ".3565238311666233",
        "equinox": "J2000",
        "orbit_class": {
            "orbit_class_type": "APO",
            "orbit_class_description": "Near-Earth asteroid orbits which cross the Earth’s orbit similar to that of 1862 Apollo",
            "orbit_class_range": "a (semi-major axis) > 1.0 AU; q (perihelion) < 1.017 AU"
        }
    },
    "is_sentry_object": false
}